NORAD_CAT_ID,OBJECT_NAME,OBJECT_TYPE,EPOCH,MEAN_MOTION,ECCENTRICITY,INCLINATION,RA_OF_ASC_NODE,ARG_OF_PERICENTER,MEAN_ANOMALY,BSTAR,MEAN_MOTION_DOT,MEAN_MOTION_DDOT,TLE_LINE0,TLE_LINE1,TLE_LINE2,SEMIMAJOR_AXIS,PERIOD,APOGEE,PERIGEE,DECAYED
54776.0,STARLINK-5470,PAYLOAD,2024-06-05 10:03:35,15.08839922,0.0001396,53.219,46.9855,85.684,274.4311,1.2926e-05,-8.2e-07,0.0,0 STARLINK-5470,1 54776U 22175U   24157.41916512 -.00000082  00000-0  12926-4 0  9999,2 54776  53.2190  46.9855 0001396  85.6840 274.4311 15.08839922 80803,6917.881,95.438,540.711,538.78,0.0
54776.0,STARLINK-5470,PAYLOAD,2024-06-05 22:46:43,15.08809222,9.82e-05,53.2194,44.6063,93.3451,266.7654,-0.00015977,-2.827e-05,0.0,0 STARLINK-5470,1 54776U 22175U   24157.94911459 -.00002827  00000-0 -15977-3 0  9990,2 54776  53.2194  44.6063 0000982  93.3451 266.7654 15.08809222 83040,6917.974,95.44,540.519,539.16,0.0
54776.0,STARLINK-5470,PAYLOAD,2024-06-06 09:54:24,15.08831347,0.000179,53.2176,42.5281,82.6929,277.4267,-0.00016336,-2.886e-05,0.0,0 STARLINK-5470,1 54776U 22175U   24158.41278579 -.00002886  00000-0 -16336-3 0  9997,2 54776  53.2176  42.5281 0001790  82.6929 277.4267 15.08831347 80957,6917.907,95.438,541.01,538.534,0.0
54776.0,STARLINK-5470,PAYLOAD,2024-06-07 16:06:41,15.08837229,0.0001562,53.2117,36.8742,108.9479,251.1682,0.00042157,6.427e-05,0.0,0 STARLINK-5470,1 54776U 22175U   24159.67131888  .00006427  00000-0  42157-3 0  9990,2 54776  53.2117  36.8742 0001562 108.9479 251.1682 15.08837229 81146,6917.889,95.438,540.834,538.673,0.0
54776.0,STARLINK-5470,PAYLOAD,2024-06-07 22:28:15,15.08797054,6.28e-05,53.2175,35.6837,130.5666,229.5381,0.00069065,0.00010708,0.0,0 STARLINK-5470,1 54776U 22175U   24159.93629094  .00010708  00000-0  69065-3 0  9994,2 54776  53.2175  35.6837 0000628 130.5666 229.5381 15.08797054 83343,6918.012,95.44,540.311,539.442,0.0
54776.0,STARLINK-5470,PAYLOAD,2024-06-08 01:39:01,15.08810503,1.37e-05,53.2179,35.0908,148.0284,212.0716,0.00049283,7.558e-05,0.0,0 STARLINK-5470,1 54776U 22175U   24160.06877173  .00007558  00000-0  49283-3 0  9992,2 54776  53.2179  35.0908 0000137 148.0284 212.0716 15.08810503 81202,6917.971,95.439,539.93,539.741,0.0
54776.0,STARLINK-5470,PAYLOAD,2024-06-08 15:57:30,15.08844916,9.4e-05,53.2184,32.4135,120.848,239.2605,-0.00012116,-2.216e-05,0.0,0 STARLINK-5470,1 54776U 22175U   24160.66493112 -.00002216  00000-0 -12116-3 0  9998,2 54776  53.2184  32.4135 0000940 120.8480 239.2605 15.08844916 81291,6917.865,95.437,540.381,539.08,0.0
54776.0,STARLINK-5470,PAYLOAD,2024-06-08 22:19:03,15.08836721,2.1e-05,53.2191,31.2254,66.0848,294.0166,-0.00018052,-3.159e-05,0.0,0 STARLINK-5470,1 54776U 22175U   24160.92989864 -.00003159  00000-0 -18052-3 0  9993,2 54776  53.2191  31.2254 0000210  66.0848 294.0166 15.08836721 83497,6917.89,95.438,539.901,539.61,0.0
54776.0,STARLINK-5470,PAYLOAD,2024-06-09 01:29:49,15.0883239,7.91e-05,53.2192,30.6329,93.7134,266.3949,-8.5903e-05,-1.654e-05,0.0,0 STARLINK-5470,1 54776U 22175U   24161.06237734 -.00001654  00000-0 -85903-4 0  9999,2 54776  53.2192  30.6329 0000791  93.7134 266.3949 15.08832390 81355,6917.904,95.438,540.316,539.221,0.0
54776.0,STARLINK-5470,PAYLOAD,2024-06-09 22:09:50,15.08833741,7.67e-05,53.2185,26.7674,86.1568,273.9512,1.5792e-06,-2.62e-06,0.0,0 STARLINK-5470,1 54776U 22175U   24161.92349708 -.00000262  00000-0  15792-5 0  9992,2 54776  53.2185  26.7674 0000767  86.1568 273.9512 15.08833741 83641,6917.9,95.438,540.295,539.234,0.0
54776.0,STARLINK-5470,PAYLOAD,2024-06-09 23:45:13,15.08836481,7.56e-05,53.2186,26.4696,89.8608,270.2471,1.5796e-05,-3.6e-07,0.0,0 STARLINK-5470,1 54776U 22175U   24161.98973514 -.00000036  00000-0  15796-4 0  9998,2 54776  53.2186  26.4696 0000756  89.8608 270.2471 15.08836481 81495,6917.891,95.438,540.279,539.233,0.0
54776.0,STARLINK-5470,PAYLOAD,2024-06-10 07:42:08,15.08847963,8.82e-05,53.2188,24.9838,85.4048,274.7045,5.9453e-05,6.59e-06,0.0,0 STARLINK-5470,1 54776U 22175U   24162.32092719  .00000659  00000-0  59453-4 0  9994,2 54776  53.2188  24.9838 0000882  85.4048 274.7045 15.08847963 81547,6917.856,95.437,540.331,539.111,0.0
54776.0,STARLINK-5470,PAYLOAD,2024-06-10 20:25:14,15.08829679,0.0001163,53.2202,22.6073,94.797,265.3155,0.00011155,1.487e-05,0.0,0 STARLINK-5470,1 54776U 22175U   24162.85086046  .00001487  00000-0  11155-3 0  9994,2 54776  53.2202  22.6073 0001163  94.7970 265.3155 15.08829679 81621,6917.912,95.438,540.581,538.972,0.0
54776.0,STARLINK-5470,PAYLOAD,2024-06-10 22:00:37,15.08832458,9.69e-05,53.2191,22.3104,102.7137,257.3964,0.00013418,1.848e-05,0.0,0 STARLINK-5470,1 54776U 22175U   24162.91709722  .00001848  00000-0  13418-3 0  9999,2 54776  53.2191  22.3104 0000969 102.7137 257.3964 15.08832458 83796,6917.903,95.438,540.439,539.098,0.0
54776.0,STARLINK-5470,PAYLOAD,2024-06-11 01:11:22,15.0884064,8.78e-05,53.2189,21.7133,87.6516,272.4577,0.00018814,2.708e-05,0.0,0 STARLINK-5470,1 54776U 22175U   24163.04957103  .00002708  00000-0  18814-3 0  9993,2 54776  53.2189  21.7133 0000878  87.6516 272.4577 15.08840640 81652,6917.878,95.438,540.351,539.136,0.0
54776.0,STARLINK-5470,PAYLOAD,2024-06-11 07:32:55,15.08843977,8.75e-05,53.2189,20.5238,90.0614,270.0478,0.00014387,2.003e-05,0.0,0 STARLINK-5470,1 54776U 22175U   24163.31452990  .00002003  00000-0  14387-3 0  9996,2 54776  53.2189  20.5238 0000875  90.0614 270.0478 15.08843977 83853,6917.868,95.437,540.339,539.128,0.0
54776.0,STARLINK-5470,PAYLOAD,2024-06-11 23:26:47,15.08843217,8.83e-05,53.2182,17.5495,88.19,271.9193,2.4511e-05,1.02e-06,0.0,0 STARLINK-5470,1 54776U 22175U   24163.97693598  .00000102  00000-0  24511-4 0  9998,2 54776  53.2182  17.5495 0000883  88.1900 271.9193 15.08843217 81794,6917.871,95.437,540.346,539.125,0.0
54776.0,STARLINK-5470,PAYLOAD,2024-06-12 07:23:41,15.08856178,9.12e-05,53.2184,16.0621,81.4426,278.667,0.00012674,1.731e-05,0.0,0 STARLINK-5470,1 54776U 22175U   24164.30812249  .00001731  00000-0  12674-3 0  9997,2 54776  53.2184  16.0621 0000912  81.4426 278.6670 15.08856178 81843,6917.831,95.437,540.327,539.065,0.0
54776.0,STARLINK-5470,PAYLOAD,2024-06-12 20:06:48,15.08834657,0.0001103,53.2189,13.6849,85.4917,274.6201,-8.4298e-05,-1.629e-05,0.0,0 STARLINK-5470,1 54776U 22175U   24164.83806322 -.00001629  00000-0 -84298-4 0  9990,2 54776  53.2189  13.6849 0001103  85.4917 274.6201 15.08834657 81928,6917.897,95.438,540.525,538.999,0.0
54776.0,STARLINK-5470,PAYLOAD,2024-06-12 21:42:11,15.08836433,9.78e-05,53.2185,13.3863,87.8389,272.2715,-7.4284e-05,-1.47e-05,0.0,0 STARLINK-5470,1 54776U 22175U   24164.90430116 -.00001470  00000-0 -74284-4 0  9990,2 54776  53.2185  13.3863 0000978  87.8389 272.2715 15.08836433 84094,6917.891,95.438,540.433,539.08,0.0
54776.0,STARLINK-5470,PAYLOAD,2024-06-13 07:14:29,15.08847678,9.11e-05,53.2181,11.6017,88.6698,271.4399,1.103e-06,-2.7e-06,0.0,0 STARLINK-5470,1 54776U 22175U   24165.30173055 -.00000270  00000-0  11030-5 0  9998,2 54776  53.2181  11.6017 0000911  88.6698 271.4399 15.08847678 81999,6917.857,95.437,540.352,539.092,0.0
54776.0,STARLINK-5470,PAYLOAD,2024-06-13 19:57:34,15.08842279,0.0001218,53.2207,9.2204,87.08,273.0332,-2.7944e-08,-2.88e-06,0.0,0 STARLINK-5470,1 54776U 22175U   24165.83165489 -.00000288  00000-0 -27944-7 0  9991,2 54776  53.2207   9.2204 0001218  87.0800 273.0332 15.08842279 84235,6917.873,95.437,540.581,538.896,0.0
54776.0,STARLINK-5470,PAYLOAD,2024-06-14 07:05:16,15.08850143,0.0001018,53.2192,7.1407,85.6816,274.4293,4.5676e-05,4.39e-06,0.0,0 STARLINK-5470,1 54776U 22175U   24166.29532671  .00000439  00000-0  45676-4 0  9998,2 54776  53.2192   7.1407 0001018  85.6816 274.4293 15.08850143 84307,6917.849,95.437,540.419,539.01,0.0
54776.0,STARLINK-5470,PAYLOAD,2024-06-14 19:48:23,15.08803794,0.0001126,53.2207,4.761,115.9386,244.1722,0.00048011,7.354e-05,0.0,0 STARLINK-5470,1 54776U 22175U   24166.82526687  .00007354  00000-0  48011-3 0  9995,2 54776  53.2207   4.7610 0001126 115.9386 244.1722 15.08803794 84381,6917.991,95.44,540.635,539.077,0.0
54776.0,STARLINK-5470,PAYLOAD,2024-06-15 13:17:36,15.08837367,0.000106,53.219,1.4885,104.29,255.821,2.7555e-05,1.51e-06,0.0,0 STARLINK-5470,1 54776U 22175U   24167.55389622  .00000151  00000-0  27555-4 0  9991,2 54776  53.2190   1.4885 0001060 104.2900 255.8210 15.08837367 84496,6917.888,95.438,540.487,539.02,0.0
54776.0,STARLINK-5470,PAYLOAD,2024-06-15 19:39:09,15.08839081,0.0001103,53.2197,0.3009,104.3003,255.8112,-3.7678e-05,-8.87e-06,0.0,0 STARLINK-5470,1 54776U 22175U   24167.81885814 -.00000887  00000-0 -37678-4 0  9999,2 54776  53.2197   0.3009 0001103 104.3003 255.8112 15.08839081 84533,6917.883,95.438,540.511,538.985,0.0
54776.0,STARLINK-5470,PAYLOAD,2024-06-15 22:49:55,15.08834705,0.0001176,53.2197,359.7059,106.3894,253.7227,3.2462e-05,2.29e-06,0.0,0 STARLINK-5470,1 54776U 22175U   24167.95133849  .00000229  00000-0  32462-4 0  9992,2 54776  53.2197 359.7059 0001176 106.3894 253.7227 15.08834705 84553,6917.897,95.438,540.575,538.948,0.0
54776.0,STARLINK-5470,PAYLOAD,2024-06-16 17:54:33,15.08833412,0.0001018,53.2187,356.1367,103.5508,256.5598,4.6946e-05,4.59e-06,0.0,0 STARLINK-5470,1 54776U 22175U   24168.74622033  .00000459  00000-0  46946-4 0  9995,2 54776  53.2187 356.1367 0001018 103.5508 256.5598 15.08833412 84670,6917.901,95.438,540.47,539.061,0.0
54776.0,STARLINK-5470,PAYLOAD,2024-06-17 19:20:44,15.08830072,0.0001309,53.22,351.3872,115.5837,244.5291,5.8188e-05,6.38e-06,0.0,0 STARLINK-5470,1 54776U 22175U   24169.80606572  .00000638  00000-0  58188-4 0  9993,2 54776  53.2200 351.3872 0001309 115.5837 244.5291 15.08830072 82679,6917.911,95.438,540.681,538.87,0.0
54776.0,STARLINK-5470,PAYLOAD,2024-06-18 04:53:02,15.08836908,0.0001427,53.2186,349.5957,85.8484,274.2672,4.7903e-05,4.74e-06,0.0,0 STARLINK-5470,1 54776U 22175U   24170.20350273  .00000474  00000-0  47903-4 0  9994,2 54776  53.2186 349.5957 0001427  85.8484 274.2672 15.08836908 84896,6917.89,95.438,540.742,538.768,0.0
